NORAD_CAT_ID,OBJECT_NAME,OBJECT_TYPE,EPOCH,MEAN_MOTION,ECCENTRICITY,INCLINATION,RA_OF_ASC_NODE,ARG_OF_PERICENTER,MEAN_ANOMALY,BSTAR,MEAN_MOTION_DOT,MEAN_MOTION_DDOT,TLE_LINE0,TLE_LINE1,TLE_LINE2,SEMIMAJOR_AXIS,PERIOD,APOGEE,PERIGEE,DECAYED
52090.0,STARLINK-3712,PAYLOAD,2023-03-08 17:52:53,15.08834609,0.0001043,53.2177,333.496,78.1501,281.9608,0.0036894,0.00058911,0.0,0 STARLINK-3712,1 52090U 22029C   23067.74506380  .00058911  00000-0  36894-2 0  9998,2 52090  53.2177 333.4960 0001043  78.1501 281.9608 15.08834609 55054,6917.897,95.438,540.483,539.04,0.0
52090.0,STARLINK-3712,PAYLOAD,2023-03-09 00:14:25,15.08865145,0.000107,53.2178,332.3068,77.2972,282.814,0.0027412,0.00043639,0.0,0 STARLINK-3712,1 52090U 22029C   23068.01002137  .00043639  00000-0  27412-2 0  9997,2 52090  53.2178 332.3068 0001070  77.2972 282.8140 15.08865145 55098,6917.804,95.436,540.409,538.928,0.0
52090.0,STARLINK-3712,PAYLOAD,2023-03-09 22:29:49,15.08870708,0.0001167,53.2174,328.1463,77.3986,282.7137,0.0017112,0.00027074,0.0,0 STARLINK-3712,1 52090U 22029C   23068.93737765  .00027074  00000-0  17112-2 0  9991,2 52090  53.2174 328.1463 0001167  77.3986 282.7137 15.08870708 55231,6917.787,95.436,540.459,538.844,0.0
52090.0,STARLINK-3712,PAYLOAD,2023-03-10 00:05:12,15.08880044,0.0001078,53.2162,327.8508,66.792,293.3185,0.0020639,0.00032748,0.0,0 STARLINK-3712,1 52090U 22029C   23069.00361626  .00032748  00000-0  20639-2 0  9991,2 52090  53.2162 327.8508 0001078  66.7920 293.3185 15.08880044 55241,6917.758,95.435,540.369,538.877,0.0
52090.0,STARLINK-3712,PAYLOAD,2023-03-10 09:37:31,15.08858154,0.0001449,53.2173,326.0644,70.6012,289.5136,0.0011629,0.00018277,0.0,0 STARLINK-3712,1 52090U 22029C   23069.40105786  .00018277  00000-0  11629-2 0  9998,2 52090  53.2173 326.0644 0001449  70.6012 289.5136 15.08858154 55300,6917.825,95.436,540.692,538.688,0.0
52090.0,STARLINK-3712,PAYLOAD,2023-03-10 17:34:27,15.08811582,0.0001034,53.2171,324.5776,95.8654,264.2456,0.00041877,6.378e-05,0.0,0 STARLINK-3712,1 52090U 22029C   23069.73226458  .00006378  00000-0  41877-3 0  9992,2 52090  53.2171 324.5776 0001034  95.8654 264.2456 15.08811582 55352,6917.967,95.439,540.548,539.117,0.0
52090.0,STARLINK-3712,PAYLOAD,2023-03-10 20:45:14,15.08825132,0.000141,53.2179,323.9845,103.8379,256.277,0.0010595,0.00016607,0.0,0 STARLINK-3712,1 52090U 22029C   23069.86474571  .00016607  00000-0  10595-2 0  9995,2 52090  53.2179 323.9845 0001410 103.8379 256.2770 15.08825132 55370,6917.926,95.438,540.766,538.815,0.0
52090.0,STARLINK-3712,PAYLOAD,2023-03-11 03:06:46,15.08847114,0.0001333,53.2171,322.7939,103.0823,257.0318,0.0026825,0.00042671,0.0,0 STARLINK-3712,1 52090U 22029C   23070.12970598  .00042671  00000-0  26825-2 0  9999,2 52090  53.2171 322.7939 0001333 103.0823 257.0318 15.08847114 55419,6917.859,95.437,540.646,538.801,0.0
52090.0,STARLINK-3712,PAYLOAD,2023-03-11 17:25:15,15.08846602,0.0001628,53.2166,320.1151,99.0398,261.0779,0.0014574,0.00022987,0.0,0 STARLINK-3712,1 52090U 22029C   23070.72587069  .00022987  00000-0  14574-2 0  9998,2 52090  53.2166 320.1151 0001628  99.0398 261.0779 15.08846602 55506,6917.86,95.437,540.851,538.599,0.0
52090.0,STARLINK-3712,PAYLOAD,2023-03-12 01:22:10,15.08851941,0.0001466,53.2157,318.6266,84.3532,275.7627,0.0010832,0.00016999,0.0,0 STARLINK-3712,1 52090U 22029C   23071.05706912  .00016999  00000-0  10832-2 0  9994,2 52090  53.2157 318.6266 0001466  84.3532 275.7627 15.08851941 55553,6917.844,95.437,540.723,538.695,0.0
52090.0,STARLINK-3712,PAYLOAD,2023-03-13 02:48:21,15.08881845,0.0002979,53.2155,313.8713,71.0589,289.0725,0.0021138,0.00033554,0.0,0 STARLINK-3712,1 52090U 22029C   23072.11691000  .00033554  00000-0  21138-2 0  9990,2 52090  53.2155 313.8713 0002979  71.0589 289.0725 15.08881845 55711,6917.752,95.435,541.678,537.557,0.0
52090.0,STARLINK-3712,PAYLOAD,2023-03-13 21:52:58,15.08839717,0.0001495,53.2167,310.2943,117.79,242.3244,0.0010253,0.00016067,0.0,0 STARLINK-3712,1 52090U 22029C   23072.91179132  .00016067  00000-0  10253-2 0  9991,2 52090  53.2167 310.2943 0001495 117.7900 242.3244 15.08839717 55839,6917.881,95.438,540.78,538.712,0.0
52090.0,STARLINK-3712,PAYLOAD,2023-03-14 01:03:45,15.08837888,0.0001207,53.2155,309.7098,120.8087,239.3024,0.0010941,0.00017166,0.0,0 STARLINK-3712,1 52090U 22029C   23073.04427297  .00017166  00000-0  10941-2 0  9999,2 52090  53.2155 309.7098 0001207 120.8087 239.3024 15.08837888 55853,6917.887,95.438,540.587,538.917,0.0
52090.0,STARLINK-3712,PAYLOAD,2023-03-14 05:49:54,15.08843475,0.0001505,53.2167,308.8121,70.435,289.6805,0.00087651,0.0001369,0.0,0 STARLINK-3712,1 52090U 22029C   23073.24299532  .00013690  00000-0  87651-3 0  9991,2 52090  53.2167 308.8121 0001505  70.4350 289.6805 15.08843475 55884,6917.87,95.437,540.776,538.694,0.0
52090.0,STARLINK-3712,PAYLOAD,2023-03-14 15:22:13,15.08848475,0.00015,53.2158,307.0331,72.3541,287.7615,0.0010135,0.00015882,0.0,0 STARLINK-3712,1 52090U 22029C   23073.64043603  .00015882  00000-0  10135-2 0  9998,2 52090  53.2158 307.0331 0001500  72.3541 287.7615 15.08848475 55946,6917.854,95.437,540.757,538.682,0.0
52090.0,STARLINK-3712,PAYLOAD,2023-03-14 21:43:45,15.08861665,0.0001466,53.2156,305.8439,73.8995,286.2158,0.001164,0.00018297,0.0,0 STARLINK-3712,1 52090U 22029C   23073.90539200  .00018297  00000-0  11640-2 0  9995,2 52090  53.2156 305.8439 0001466  73.8995 286.2158 15.08861665 55985,6917.814,95.436,540.693,538.665,0.0
52090.0,STARLINK-3712,PAYLOAD,2023-03-15 21:34:30,15.0889938,0.00016,53.2156,301.3842,68.4364,291.6798,0.001143,0.00017979,0.0,0 STARLINK-3712,1 52090U 22029C   23074.89896390  .00017979  00000-0  11430-2 0  9993,2 52090  53.2156 301.3842 0001600  68.4364 291.6798 15.08899380 56137,6917.699,95.434,540.671,538.457,0.0
52090.0,STARLINK-3712,PAYLOAD,2023-03-16 00:45:19,15.08856088,0.0001763,53.2163,300.7867,75.2064,284.9124,0.00081424,0.000127,0.0,0 STARLINK-3712,1 52090U 22029C   23075.03147131  .00012700  00000-0  81424-3 0  9990,2 52090  53.2163 300.7867 0001763  75.2064 284.9124 15.08856088 56156,6917.831,95.437,540.916,538.477,0.0
52090.0,STARLINK-3712,PAYLOAD,2023-03-16 21:25:20,15.08824642,0.0001235,53.2167,296.9225,70.0812,290.0313,0.00053835,8.287e-05,0.0,0 STARLINK-3712,1 52090U 22029C   23075.89260104  .00008287  00000-0  53835-3 0  9990,2 52090  53.2167 296.9225 0001235  70.0812 290.0313 15.08824642 56285,6917.927,95.439,540.647,538.938,0.0
52090.0,STARLINK-3712,PAYLOAD,2023-03-17 00:36:06,15.08827058,0.0001006,53.2163,296.3263,97.4748,262.6359,0.00052256,8.036e-05,0.0,0 STARLINK-3712,1 52090U 22029C   23076.02508036  .00008036  00000-0  52256-3 0  9993,2 52090  53.2163 296.3263 0001006  97.4748 262.6359 15.08827058 56306,6917.92,95.438,540.481,539.089,0.0
52090.0,STARLINK-3712,PAYLOAD,2023-03-17 21:16:07,15.08838147,9.34e-05,53.2168,292.4603,86.8821,273.2278,0.00036537,5.532e-05,0.0,0 STARLINK-3712,1 52090U 22029C   23076.88620246  .00005532  00000-0  36537-3 0  9997,2 52090  53.2168 292.4603 0000934  86.8821 273.2278 15.08838147 56432,6917.886,95.438,540.397,539.105,0.0
52090.0,STARLINK-3712,PAYLOAD,2023-03-18 06:48:26,15.08845546,0.0001178,53.2166,290.6762,91.9271,268.1856,0.00040014,6.087e-05,0.0,0 STARLINK-3712,1 52090U 22029C   23077.28364045  .00006087  00000-0  40014-3 0  9995,2 52090  53.2166 290.6762 0001178  91.9271 268.1856 15.08845546 56495,6917.863,95.437,540.543,538.914,0.0
52090.0,STARLINK-3712,PAYLOAD,2023-03-18 21:06:54,15.08847131,0.0001301,53.2159,288.001,99.4453,260.6687,0.00045295,6.93e-05,0.0,0 STARLINK-3712,1 52090U 22029C   23077.87979908  .00006930  00000-0  45295-3 0  9993,2 52090  53.2159 288.0010 0001301  99.4453 260.6687 15.08847131 56588,6917.859,95.437,540.624,538.824,0.0
52090.0,STARLINK-3712,PAYLOAD,2023-03-19 06:39:13,15.08850521,0.0001032,53.2152,286.2165,89.2105,270.9006,0.00025556,3.783e-05,0.0,0 STARLINK-3712,1 52090U 22029C   23078.27723487  .00003783  00000-0  25556-3 0  9998,2 52090  53.2152 286.2165 0001032  89.2105 270.9006 15.08850521 56647,6917.848,95.437,540.427,538.999,0.0
52090.0,STARLINK-3712,PAYLOAD,2023-03-19 19:22:18,15.08844004,0.0001511,53.2174,283.8374,91.6784,268.4381,9.0403e-05,1.151e-05,0.0,0 STARLINK-3712,1 52090U 22029C   23078.80715722  .00001151  00000-0  90403-4 0  9991,2 52090  53.2174 283.8374 0001511  91.6784 268.4381 15.08844004 56724,6917.868,95.437,540.778,538.688,0.0
52090.0,STARLINK-3712,PAYLOAD,2023-03-19 20:57:41,15.08844891,0.0001335,53.2169,283.5405,90.8315,269.283,0.00010169,1.331e-05,0.0,0 STARLINK-3712,1 52090U 22029C   23078.87339650  .00001331  00000-0  10169-3 0  9990,2 52090  53.2169 283.5405 0001335  90.8315 269.2830 15.08844891 56738,6917.865,95.437,540.654,538.807,0.0
52090.0,STARLINK-3712,PAYLOAD,2023-03-20 06:29:59,15.08849898,0.0001023,53.2144,281.7546,99.5935,260.5172,0.00015724,2.216e-05,0.0,0 STARLINK-3712,1 52090U 22029C   23079.27083162  .00002216  00000-0  15724-3 0  9994,2 52090  53.2144 281.7546 0001023  99.5935 260.5172 15.08849898 56796,6917.85,95.437,540.423,539.007,0.0
52090.0,STARLINK-3712,PAYLOAD,2023-03-20 17:37:41,15.08847326,0.0001083,53.2149,279.6721,95.9966,264.115,0.00012868,1.761e-05,0.0,0 STARLINK-3712,1 52090U 22029C   23079.73451159  .00001761  00000-0  12868-3 0  9990,2 52090  53.2149 279.6721 0001083  95.9966 264.1150 15.08847326 56860,6917.858,95.437,540.472,538.974,0.0
52090.0,STARLINK-3712,PAYLOAD,2023-03-20 22:23:51,15.08846363,0.000104,53.2152,278.78,94.0195,266.0916,5.3371e-05,5.62e-06,0.0,0 STARLINK-3712,1 52090U 22029C   23079.93323097  .00000562  00000-0  53371-4 0  9994,2 52090  53.2152 278.7800 0001040  94.0195 266.0916 15.08846363 56893,6917.861,95.437,540.445,539.006,0.0
52090.0,STARLINK-3712,PAYLOAD,2023-03-21 20:39:15,15.08832644,0.0001054,53.2158,274.617,92.7096,267.4017,-7.0454e-05,-1.409e-05,0.0,0 STARLINK-3712,1 52090U 22029C   23080.86060095 -.00001409  00000-0 -70454-4 0  9998,2 52090  53.2158 274.6170 0001054  92.7096 267.4017 15.08832644 57035,6917.903,95.438,540.497,539.039,0.0
